{
"type": "FeatureCollection",
"name": "trabzon_turizm",
"crs": { "type": "name", "properties": { "name": "urn:ogc:def:crs:OGC:1.3:CRS84" } },
"features": [
{ "type": "Feature", "properties": { "IL": "TRABZON", "ILCE": "ORTAHISAR", "MAHALLE": "CARSI", "ADI": "ALACAHAN", "TUR": "HAN", "ENLEM": 41.0078, "BOYLAM": 39.7247, "RESİM": "C:\\Users\\hakan\\OneDrive - Glarner Brückenangebote GBA\\Desktop\\web_cbs_odev\\odev\\resimler\\alacahan.jpg" }, "geometry": { "type": "Point", "coordinates": [ 39.7247, 41.0078 ] } },
{ "type": "Feature", "properties": { "IL": "TRABZON", "ILCE": "ARAKLI", "MAHALLE": "KALECIK", "ADI": "ARAKLI KALESI", "TUR": "KALE", "ENLEM": 40.9583, "BOYLAM": 40.0284, "RESİM": "C:\\Users\\hakan\\OneDrive - Glarner Brückenangebote GBA\\Desktop\\web_cbs_odev\\odev\\resimler\\araklikalesi.jpg" }, "geometry": { "type": "Point", "coordinates": [ 40.0284, 40.9583 ] } },
{ "type": "Feature", "properties": { "IL": "TRABZON", "ILCE": "ORTAHISAR", "MAHALLE": "SOGUKSU", "ADI": "ATATURK KOSKU", "TUR": "KONUT", "ENLEM": 40.9796, "BOYLAM": 39.6975, "RESİM": null }, "geometry": { "type": "Point", "coordinates": [ 39.6975, 40.9796 ] } },
{ "type": "Feature", "properties": { "IL": "TRABZON", "ILCE": "ORTAHISAR", "MAHALLE": "CARSI", "ADI": "BEDESTEN", "TUR": "HAN", "ENLEM": 41.0077, "BOYLAM": 39.7236, "RESİM": "C:\\Users\\hakan\\OneDrive - Glarner Brückenangebote GBA\\Desktop\\web_cbs_odev\\odev\\resimler\\bedesten.jpg" }, "geometry": { "type": "Point", "coordinates": [ 39.7236, 41.0077 ] } },
{ "type": "Feature", "properties": { "IL": "TRABZON", "ILCE": "ORTAHISAR", "MAHALLE": "BOZTEPE", "ADI": "CEPHANELIK", "TUR": "KULE/CEPHANELIK", "ENLEM": 40.9926, "BOYLAM": 39.7224, "RESİM": "C:\\Users\\hakan\\OneDrive - Glarner Brückenangebote GBA\\Desktop\\web_cbs_odev\\odev\\resimler\\cephanelik.jpg" }, "geometry": { "type": "Point", "coordinates": [ 39.7224, 40.9926 ] } },
{ "type": "Feature", "properties": { "IL": "TRABZON", "ILCE": "ORTAHISAR", "MAHALLE": "INONU", "ADI": "EMİR MEHMET TÜRBESİ", "TUR": "TURBE", "ENLEM": 41.0042, "BOYLAM": 39.7105, "RESİM": "C:\\Users\\hakan\\OneDrive - Glarner Brückenangebote GBA\\Desktop\\web_cbs_odev\\odev\\resimler\\emirmehmetturbesi.jpg" }, "geometry": { "type": "Point", "coordinates": [ 39.7105, 41.0042 ] } },
{ "type": "Feature", "properties": { "IL": "TRABZON", "ILCE": "CARSIBASI", "MAHALLE": "FENER", "ADI": "YOROZ FENERI", "TUR": "FENER", "ENLEM": 41.1067, "BOYLAM": 39.419, "RESİM": null }, "geometry": { "type": "Point", "coordinates": [ 39.419, 41.1067 ] } },
{ "type": "Feature", "properties": { "IL": "TRABZON", "ILCE": "ORTAHISAR", "MAHALLE": "GULBAHARHATUN", "ADI": "GULBAHAR HATYN TURBESI", "TUR": "TURBE", "ENLEM": 41.0035, "BOYLAM": 39.7164, "RESİM": "C:\\Users\\hakan\\OneDrive - Glarner Brückenangebote GBA\\Desktop\\web_cbs_odev\\odev\\resimler\\gulbaharhatunturbesi.jpg" }, "geometry": { "type": "Point", "coordinates": [ 39.7164, 41.0035 ] } },
{ "type": "Feature", "properties": { "IL": "TRABZON", "ILCE": "OF", "MAHALLE": "BOLUMLU", "ADI": "HAPSİYAŞ KÖPRÜSÜ (KİREMİTLİ KÖPRÜ)", "TUR": "KOPRU", "ENLEM": 40.8193, "BOYLAM": 40.2656, "RESİM": "C:\\Users\\hakan\\OneDrive - Glarner Brückenangebote GBA\\Desktop\\web_cbs_odev\\odev\\resimler\\kiremitlikopru.jpg" }, "geometry": { "type": "Point", "coordinates": [ 40.2656, 40.8193 ] } },
{ "type": "Feature", "properties": { "IL": "TRABZON", "ILCE": "ORTAHISAR", "MAHALLE": "COMLEKCI", "ADI": "RUM KILISESI", "TUR": "KILISE", "ENLEM": 41.0031, "BOYLAM": 39.7341, "RESİM": "C:\\Users\\hakan\\OneDrive - Glarner Brückenangebote GBA\\Desktop\\web_cbs_odev\\odev\\resimler\\rumkilisesi.jpg" }, "geometry": { "type": "Point", "coordinates": [ 39.7341, 41.0031 ] } },
{ "type": "Feature", "properties": { "IL": "TRABZON", "ILCE": "YOMRA", "MAHALLE": "SANCAK", "ADI": "SANCAK MAHALLESİ CAMİİ", "TUR": "CAMI", "ENLEM": 40.9309, "BOYLAM": 39.8459, "RESİM": null }, "geometry": { "type": "Point", "coordinates": [ 39.8459, 40.9309 ] } },
{ "type": "Feature", "properties": { "IL": "TRABZON", "ILCE": "ORTAHISAR", "MAHALLE": "ISKENDERPASA", "ADI": "SANTA MARIA KİLİSESİ", "TUR": "KILISE", "ENLEM": 41.0071, "BOYLAM": 39.7319, "RESİM": "C:\\Users\\hakan\\OneDrive - Glarner Brückenangebote GBA\\Desktop\\web_cbs_odev\\odev\\resimler\\santmariakilisesi.jpg" }, "geometry": { "type": "Point", "coordinates": [ 39.7319, 41.0071 ] } },
{ "type": "Feature", "properties": { "IL": "TRABZON", "ILCE": "MACKA", "MAHALLE": "YESILYURT", "ADI": "ŞAPEL 1 (YEŞİLYURT MAHALLESİ)", "TUR": "SAPEL", "ENLEM": 40.8281, "BOYLAM": 39.6152, "RESİM": "C:\\Users\\hakan\\OneDrive - Glarner Brückenangebote GBA\\Desktop\\web_cbs_odev\\odev\\resimler\\sapel1.jpg" }, "geometry": { "type": "Point", "coordinates": [ 39.6152, 40.8281 ] } },
{ "type": "Feature", "properties": { "IL": "TRABZON", "ILCE": "OF", "MAHALLE": "SARACLI", "ADI": "SARAÇLI MAHALLESİ CAMİİ", "TUR": "CAMI", "ENLEM": 40.8613, "BOYLAM": 40.2952, "RESİM": null }, "geometry": { "type": "Point", "coordinates": [ 40.2952, 40.8613 ] } },
{ "type": "Feature", "properties": { "IL": "TRABZON", "ILCE": "ORTAHISAR", "MAHALLE": "CARSI", "ADI": "SEMERCİLER (EBUBEKİR) CAMİİ", "TUR": "CAMI", "ENLEM": 41.0073, "BOYLAM": 39.7248, "RESİM": null }, "geometry": { "type": "Point", "coordinates": [ 39.7248, 41.0073 ] } },
{ "type": "Feature", "properties": { "IL": "TRABZON", "ILCE": "OF", "MAHALLE": "CUMAPAZARI", "ADI": "SERİNDERE CAMİİ", "TUR": "CAMI", "ENLEM": 40.8291, "BOYLAM": 40.2602, "RESİM": null }, "geometry": { "type": "Point", "coordinates": [ 40.2602, 40.8291 ] } },
{ "type": "Feature", "properties": { "IL": "TRABZON", "ILCE": "MACKA", "MAHALLE": "COSANDERE", "ADI": "ST. BARBARA MANASTIRI", "TUR": "KILISE", "ENLEM": 40.6871, "BOYLAM": 39.6595, "RESİM": "C:\\Users\\hakan\\OneDrive - Glarner Brückenangebote GBA\\Desktop\\web_cbs_odev\\odev\\resimler\\stbarbaramanastiri.jpg" }, "geometry": { "type": "Point", "coordinates": [ 39.6595, 40.6871 ] } },
{ "type": "Feature", "properties": { "IL": "TRABZON", "ILCE": "AKCAABAT", "MAHALLE": "ORTAMAHALLE", "ADI": "ST. MICHAEL KİLİSESİ", "TUR": "KILISE", "ENLEM": 41.0191, "BOYLAM": 39.5616, "RESİM": "C:\\Users\\hakan\\OneDrive - Glarner Brückenangebote GBA\\Desktop\\web_cbs_odev\\odev\\resimler\\stmichelkilisesi.jpg" }, "geometry": { "type": "Point", "coordinates": [ 39.5616, 41.0191 ] } },
{ "type": "Feature", "properties": { "IL": "TRABZON", "ILCE": "ORTAHISAR", "MAHALLE": "ORTAHISAR", "ADI": "SU KEMERI", "TUR": "SU KEMERI", "ENLEM": 41.0014, "BOYLAM": 39.7178, "RESİM": null }, "geometry": { "type": "Point", "coordinates": [ 39.7178, 41.0014 ] } },
{ "type": "Feature", "properties": { "IL": "TRABZON", "ILCE": "OF", "MAHALLE": "SUGELDI", "ADI": "SUGELDİ MAHALLESİ CAMİİ", "TUR": "CAMI", "ENLEM": 40.8981, "BOYLAM": 40.3335, "RESİM": null }, "geometry": { "type": "Point", "coordinates": [ 40.3335, 40.8981 ] } },
{ "type": "Feature", "properties": { "IL": "TRABZON", "ILCE": "MACKA", "MAHALLE": "COSANDERE", "ADI": "SÜMELA MANASTIRI", "TUR": "KILISE", "ENLEM": 40.6903, "BOYLAM": 39.6584, "RESİM": "C:\\Users\\hakan\\OneDrive - Glarner Brückenangebote GBA\\Desktop\\web_cbs_odev\\odev\\resimler\\sumelamanastiri.jpg" }, "geometry": { "type": "Point", "coordinates": [ 39.6584, 40.6903 ] } },
{ "type": "Feature", "properties": { "IL": "TRABZON", "ILCE": "ORTAHISAR", "MAHALLE": "ORTAHISAR", "ADI": "TABAKHANE KÖPRÜSÜ", "TUR": "KOPRU", "ENLEM": 41.0049, "BOYLAM": 39.7218, "RESİM": "C:\\Users\\hakan\\OneDrive - Glarner Brückenangebote GBA\\Desktop\\web_cbs_odev\\odev\\resimler\\tabakhanekoprusu.jpg" }, "geometry": { "type": "Point", "coordinates": [ 39.7218, 41.0049 ] } },
{ "type": "Feature", "properties": { "IL": "TRABZON", "ILCE": "DERNEKPAZARI", "MAHALLE": "TASCILAR", "ADI": "TAŞÇILAR MAHALLESİ MERKEZ CAMİİ", "TUR": "CAMI", "ENLEM": 40.7719, "BOYLAM": 40.2113, "RESİM": null }, "geometry": { "type": "Point", "coordinates": [ 40.2113, 40.7719 ] } },
{ "type": "Feature", "properties": { "IL": "TRABZON", "ILCE": "ORTAHISAR", "MAHALLE": "CARSI", "ADI": "TAŞHAN", "TUR": "HAN", "ENLEM": 41.0072, "BOYLAM": 39.7241, "RESİM": "C:\\Users\\hakan\\OneDrive - Glarner Brückenangebote GBA\\Desktop\\web_cbs_odev\\odev\\resimler\\tashan.jpg" }, "geometry": { "type": "Point", "coordinates": [ 39.7241, 41.0072 ] } },
{ "type": "Feature", "properties": { "IL": "TRABZON", "ILCE": "CAYKARA", "MAHALLE": "TASKIRAN", "ADI": "TAŞKIRAN MAHALLESİ CAMİİ", "TUR": "CAMI", "ENLEM": 40.6679, "BOYLAM": 40.2583, "RESİM": null }, "geometry": { "type": "Point", "coordinates": [ 40.2583, 40.6679 ] } },
{ "type": "Feature", "properties": { "IL": "TRABZON", "ILCE": "CAYKARA", "MAHALLE": "TASOREN", "ADI": "TAŞÖREN MAHALLESİ CAMİİ", "TUR": "CAMI", "ENLEM": 40.7423, "BOYLAM": 40.2636, "RESİM": null }, "geometry": { "type": "Point", "coordinates": [ 40.2636, 40.7423 ] } },
{ "type": "Feature", "properties": { "IL": "TRABZON", "ILCE": "ORTAHISAR", "MAHALLE": "GAZIPASA", "ADI": "TEKKE CAMİİ", "TUR": "CAMI", "ENLEM": 41.0039, "BOYLAM": 39.7294, "RESİM": null }, "geometry": { "type": "Point", "coordinates": [ 39.7294, 41.0039 ] } },
{ "type": "Feature", "properties": { "IL": "TRABZON", "ILCE": "ORTAHISAR", "MAHALLE": "ORTAHISAR", "ADI": "TRABZON KALESİ", "TUR": "KALE", "ENLEM": 41.0008, "BOYLAM": 39.7191, "RESİM": "C:\\Users\\hakan\\OneDrive - Glarner Brückenangebote GBA\\Desktop\\web_cbs_odev\\odev\\resimler\\trabzonkalesi.jpg" }, "geometry": { "type": "Point", "coordinates": [ 39.7191, 41.0008 ] } },
{ "type": "Feature", "properties": { "IL": "TRABZON", "ILCE": "ORTAHISAR", "MAHALLE": "CUMHURIYET", "ADI": "TRABZON MÜZESİ", "TUR": "MUZE", "ENLEM": 41.0051, "BOYLAM": 39.7266, "RESİM": null }, "geometry": { "type": "Point", "coordinates": [ 39.7266, 41.0051 ] } },
{ "type": "Feature", "properties": { "IL": "TRABZON", "ILCE": "ORTAHISAR", "MAHALLE": "ORTAHISAR", "ADI": "TRABZON TARİH MÜZESİ", "TUR": "MUZE", "ENLEM": 41.005, "BOYLAM": 39.7212, "RESİM": null }, "geometry": { "type": "Point", "coordinates": [ 39.7212, 41.005 ] } },
{ "type": "Feature", "properties": { "IL": "TRABZON", "ILCE": "ARAKLI", "MAHALLE": "TURNALI", "ADI": "TURNALI MAHALLESİ CAMİİ", "TUR": "CAMI", "ENLEM": 40.7933, "BOYLAM": 39.9679, "RESİM": null }, "geometry": { "type": "Point", "coordinates": [ 39.9679, 40.7933 ] } },
{ "type": "Feature", "properties": { "IL": "TRABZON", "ILCE": "CAYKARA", "MAHALLE": "UZUNGOL/YENIMAHALLE", "ADI": "UZUNGÖL FİLAK CAMİİ", "TUR": "CAMI", "ENLEM": 40.632, "BOYLAM": 40.283, "RESİM": null }, "geometry": { "type": "Point", "coordinates": [ 40.283, 40.632 ] } },
{ "type": "Feature", "properties": { "IL": "TRABZON", "ILCE": "CAYKARA", "MAHALLE": "UZUNTARLA", "ADI": "UZUNTARLA MAHALLESİ KARAÇAM CAMİİ", "TUR": "CAMI", "ENLEM": 40.5999, "BOYLAM": 40.1797, "RESİM": null }, "geometry": { "type": "Point", "coordinates": [ 40.1797, 40.5999 ] } },
{ "type": "Feature", "properties": { "IL": "TRABZON", "ILCE": "MACKA", "MAHALLE": "KIREMITLI", "ADI": "VAZELON MANASTIRI", "TUR": "KILISE", "ENLEM": 40.7598, "BOYLAM": 39.53, "RESİM": "C:\\Users\\hakan\\OneDrive - Glarner Brückenangebote GBA\\Desktop\\web_cbs_odev\\odev\\resimler\\vazelonmanastiri.jpg" }, "geometry": { "type": "Point", "coordinates": [ 39.53, 40.7598 ] } },
{ "type": "Feature", "properties": { "IL": "TRABZON", "ILCE": "SURMENE", "MAHALLE": "ORTA", "ADI": "YALI CAMİİ (ORTA MAHALLESİ)", "TUR": "CAMI", "ENLEM": 40.9112, "BOYLAM": 40.128, "RESİM": null }, "geometry": { "type": "Point", "coordinates": [ 40.128, 40.9112 ] } },
{ "type": "Feature", "properties": { "IL": "TRABZON", "ILCE": "ARAKLI", "MAHALLE": "YALIBOYU", "ADI": "YALIBOYU MAHALLESİ CAMİİ", "TUR": "CAMI", "ENLEM": 40.9483, "BOYLAM": 40.0113, "RESİM": null }, "geometry": { "type": "Point", "coordinates": [ 40.0113, 40.9483 ] } },
{ "type": "Feature", "properties": { "IL": "TRABZON", "ILCE": "AKCAABAT", "MAHALLE": "ORTA", "ADI": "YENİ CAMİİ", "TUR": "CAMI", "ENLEM": 41.022, "BOYLAM": 39.5676, "RESİM": null }, "geometry": { "type": "Point", "coordinates": [ 39.5676, 41.022 ] } },
{ "type": "Feature", "properties": { "IL": "TRABZON", "ILCE": "ORTAHISAR", "MAHALLE": "YENICUMA", "ADI": "YENİCUMA CAMİİ", "TUR": "CAMI", "ENLEM": 41.0011, "BOYLAM": 39.7222, "RESİM": null }, "geometry": { "type": "Point", "coordinates": [ 39.7222, 41.0011 ] } },
{ "type": "Feature", "properties": { "IL": "TRABZON", "ILCE": "ORTAHISAR", "MAHALLE": "GULBAHARHATUN", "ADI": "ZAĞNOS BURCU", "TUR": "KALE", "ENLEM": 41.0045, "BOYLAM": 39.7169, "RESİM": null }, "geometry": { "type": "Point", "coordinates": [ 39.7169, 41.0045 ] } },
{ "type": "Feature", "properties": { "IL": "TRABZON", "ILCE": "ORTAHISAR", "MAHALLE": "GULBAHARHATUN", "ADI": "ZAĞNOS PAŞA KÖPRÜSÜ", "TUR": "KOPRU", "ENLEM": 41.0044, "BOYLAM": 39.7181, "RESİM": "C:\\Users\\hakan\\OneDrive - Glarner Brückenangebote GBA\\Desktop\\web_cbs_odev\\odev\\resimler\\zagnozkoprusu.jpg" }, "geometry": { "type": "Point", "coordinates": [ 39.7181, 41.0044 ] } },
{ "type": "Feature", "properties": { "IL": "TRABZON", "ILCE": "ORTAHISAR", "MAHALLE": "CARSI", "ADI": "PAŞA HAMAMI", "TUR": "HAMAM", "ENLEM": 41.0072, "BOYLAM": 39.7235, "RESİM": "C:\\Users\\hakan\\OneDrive - Glarner Brückenangebote GBA\\Desktop\\web_cbs_odev\\odev\\resimler\\pasahamami.jpg" }, "geometry": { "type": "Point", "coordinates": [ 39.7235, 41.0072 ] } },
{ "type": "Feature", "properties": { "IL": "TRABZON", "ILCE": "MACKA", "MAHALLE": "OCAKLI", "ADI": "OCAKLI KİLİSESİ", "TUR": "KILISE", "ENLEM": 40.8067, "BOYLAM": 39.5699, "RESİM": "C:\\Users\\hakan\\OneDrive - Glarner Brückenangebote GBA\\Desktop\\web_cbs_odev\\odev\\resimler\\ocaklikilisesi.jpg" }, "geometry": { "type": "Point", "coordinates": [ 39.5699, 40.8067 ] } },
{ "type": "Feature", "properties": { "IL": "TRABZON", "ILCE": "AKCAABAT", "MAHALLE": "ORTAMAHALLE", "ADI": "ORTA MAHALLE KENTSEL SİT ALANI", "TUR": "KONUT", "ENLEM": 41.0191, "BOYLAM": 39.5639, "RESİM": null }, "geometry": { "type": "Point", "coordinates": [ 39.5639, 41.0191 ] } },
{ "type": "Feature", "properties": { "IL": "TRABZON", "ILCE": "ORTAHISAR", "MAHALLE": "GAZIPASA", "ADI": "NEMLİOĞLU (TAVANLI) CAMİİ", "TUR": "CAMI", "ENLEM": 41.0013, "BOYLAM": 39.7277, "RESİM": null }, "geometry": { "type": "Point", "coordinates": [ 39.7277, 41.0013 ] } },
{ "type": "Feature", "properties": { "IL": "TRABZON", "ILCE": "ORTAHISAR", "MAHALLE": "ORTAHISAR", "ADI": "MUVAKKİTHANE", "TUR": "KUTUPHANE", "ENLEM": 41.0048, "BOYLAM": 39.7196, "RESİM": null }, "geometry": { "type": "Point", "coordinates": [ 39.7196, 41.0048 ] } },
{ "type": "Feature", "properties": { "IL": "TRABZON", "ILCE": "ORTAHISAR", "MAHALLE": "ORTAHISAR", "ADI": "MUSAPAŞA CAMİİ", "TUR": "CAMI", "ENLEM": 41.0031, "BOYLAM": 39.7204, "RESİM": null }, "geometry": { "type": "Point", "coordinates": [ 39.7204, 41.0031 ] } },
{ "type": "Feature", "properties": { "IL": "TRABZON", "ILCE": "ORTAHISAR", "MAHALLE": "PAZARKAPI", "ADI": "MOLLA SİYAH CAMİİ", "TUR": "CAMI", "ENLEM": 41.0071, "BOYLAM": 39.7184, "RESİM": null }, "geometry": { "type": "Point", "coordinates": [ 39.7184, 41.0071 ] } },
{ "type": "Feature", "properties": { "IL": "TRABZON", "ILCE": "OF", "MAHALLE": "UGURLU", "ADI": "MOLLA ÖMEROĞLU CAMİİ", "TUR": "CAMI", "ENLEM": 40.8457, "BOYLAM": 40.3122, "RESİM": null }, "geometry": { "type": "Point", "coordinates": [ 40.3122, 40.8457 ] } },
{ "type": "Feature", "properties": { "IL": "TRABZON", "ILCE": "OF", "MAHALLE": "BOLUMLU", "ADI": "MİTHATPAŞA CAMİİ", "TUR": "CAMI", "ENLEM": 40.8268, "BOYLAM": 40.2777, "RESİM": null }, "geometry": { "type": "Point", "coordinates": [ 40.2777, 40.8268 ] } },
{ "type": "Feature", "properties": { "IL": "TRABZON", "ILCE": "VAKFIKEBIR", "MAHALLE": "CARSI", "ADI": "MERKEZ CAMİİ", "TUR": "CAMI", "ENLEM": 41.0475, "BOYLAM": 39.2758, "RESİM": null }, "geometry": { "type": "Point", "coordinates": [ 39.2758, 41.0475 ] } },
{ "type": "Feature", "properties": { "IL": "TRABZON", "ILCE": "HAYRAT", "MAHALLE": "DEREYURT", "ADI": "MERKEZ CAMİİ", "TUR": "CAMI", "ENLEM": 40.8729, "BOYLAM": 40.3911, "RESİM": null }, "geometry": { "type": "Point", "coordinates": [ 40.3911, 40.8729 ] } },
{ "type": "Feature", "properties": { "IL": "TRABZON", "ILCE": "ARAKLI", "MAHALLE": "MERKEZ", "ADI": "MERKEZ CAMİİ", "TUR": "CAMI", "ENLEM": 40.9391, "BOYLAM": 40.0545, "RESİM": null }, "geometry": { "type": "Point", "coordinates": [ 40.0545, 40.9391 ] } },
{ "type": "Feature", "properties": { "IL": "TRABZON", "ILCE": "DERNEKPAZARI", "MAHALLE": "TASCILAR", "ADI": "MEDRESE 1 (TAŞÇILAR MAHALLESİ)", "TUR": "MEDRESE", "ENLEM": 40.7719, "BOYLAM": 40.2112, "RESİM": "C:\\Users\\hakan\\OneDrive - Glarner Brückenangebote GBA\\Desktop\\web_cbs_odev\\odev\\resimler\\medrese.jpg" }, "geometry": { "type": "Point", "coordinates": [ 40.2112, 40.7719 ] } },
{ "type": "Feature", "properties": { "IL": "TRABZON", "ILCE": "BESIKDUZU", "MAHALLE": "BAYIRKOY", "ADI": "MAĞARA ŞAPELİ", "TUR": "KILISE", "ENLEM": 41.029, "BOYLAM": 39.2226, "RESİM": "C:\\Users\\hakan\\OneDrive - Glarner Brückenangebote GBA\\Desktop\\web_cbs_odev\\odev\\resimler\\magarasapeli.jpg" }, "geometry": { "type": "Point", "coordinates": [ 39.2226, 41.029 ] } },
{ "type": "Feature", "properties": { "IL": "TRABZON", "ILCE": "MACKA", "MAHALLE": "SIMSIRLI", "ADI": "KUŞTUL MANASTIRI", "TUR": "KILISE", "ENLEM": 40.8026, "BOYLAM": 39.7067, "RESİM": "C:\\Users\\hakan\\OneDrive - Glarner Brückenangebote GBA\\Desktop\\web_cbs_odev\\odev\\resimler\\kustulmanastiri.jpg" }, "geometry": { "type": "Point", "coordinates": [ 39.7067, 40.8026 ] } },
{ "type": "Feature", "properties": { "IL": "TRABZON", "ILCE": "SURMENE", "MAHALLE": "CAMBURNU", "ADI": "KUŞLUCA CAMİİ", "TUR": "CAMI", "ENLEM": 40.9146, "BOYLAM": 40.1988, "RESİM": null }, "geometry": { "type": "Point", "coordinates": [ 40.1988, 40.9146 ] } },
{ "type": "Feature", "properties": { "IL": "TRABZON", "ILCE": "TONYA", "MAHALLE": "KOZLUCA", "ADI": "KÜLLİYE", "TUR": "CAMI", "ENLEM": 40.9526, "BOYLAM": 39.2313, "RESİM": null }, "geometry": { "type": "Point", "coordinates": [ 39.2313, 40.9526 ] } },
{ "type": "Feature", "properties": { "IL": "TRABZON", "ILCE": "ORTAHISAR", "MAHALLE": "CARSI", "ADI": "KÜÇÜK AYVASIL KİLİSESİ", "TUR": "KILISE", "ENLEM": 41.006, "BOYLAM": 39.7233, "RESİM": "C:\\Users\\hakan\\OneDrive - Glarner Brückenangebote GBA\\Desktop\\web_cbs_odev\\odev\\resimler\\kucukayvasilkilisesi.jpg" }, "geometry": { "type": "Point", "coordinates": [ 39.7233, 41.006 ] } },
{ "type": "Feature", "properties": { "IL": "TRABZON", "ILCE": "ARAKLI", "MAHALLE": "HURRIYET", "ADI": "KONAKÖNÜ CAMİİ", "TUR": "CAMI", "ENLEM": 40.9526, "BOYLAM": 40.0488, "RESİM": null }, "geometry": { "type": "Point", "coordinates": [ 40.0488, 40.9526 ] } },
{ "type": "Feature", "properties": { "IL": "TRABZON", "ILCE": "ORTAHISAR", "MAHALLE": "CUMHURIYET", "ADI": "KONAK CAMİİ", "TUR": "CAMI", "ENLEM": 41.0055, "BOYLAM": 39.7254, "RESİM": null }, "geometry": { "type": "Point", "coordinates": [ 39.7254, 41.0055 ] } },
{ "type": "Feature", "properties": { "IL": "TRABZON", "ILCE": "ORTAHISAR", "MAHALLE": "BOZTEPE", "ADI": "KIZLAR MANASTIRI", "TUR": "KILISE", "ENLEM": 40.9986, "BOYLAM": 39.7293, "RESİM": "C:\\Users\\hakan\\OneDrive - Glarner Brückenangebote GBA\\Desktop\\web_cbs_odev\\odev\\resimler\\kizlarmanastiri.jpg" }, "geometry": { "type": "Point", "coordinates": [ 39.7293, 40.9986 ] } },
{ "type": "Feature", "properties": { "IL": "TRABZON", "ILCE": "SURMENE", "MAHALLE": "USTUNDAL", "ADI": "KİLİSE 2 (ÜSTÜNDAL MAHALLESİ)", "TUR": "KILISE", "ENLEM": 40.877, "BOYLAM": 40.1166, "RESİM": "C:\\Users\\hakan\\OneDrive - Glarner Brückenangebote GBA\\Desktop\\web_cbs_odev\\odev\\resimler\\ustundalkilisesi.jpg" }, "geometry": { "type": "Point", "coordinates": [ 40.1166, 40.877 ] } },
{ "type": "Feature", "properties": { "IL": "TRABZON", "ILCE": "MACKA", "MAHALLE": "OCAKLI", "ADI": "KİLİSE 1 (OCAKLI MAHALLESİ)", "TUR": "KILISE", "ENLEM": 40.8047, "BOYLAM": 39.574, "RESİM": "C:\\Users\\hakan\\OneDrive - Glarner Brückenangebote GBA\\Desktop\\web_cbs_odev\\odev\\resimler\\ocaklikilisesi1.jpg" }, "geometry": { "type": "Point", "coordinates": [ 39.574, 40.8047 ] } },
{ "type": "Feature", "properties": { "IL": "TRABZON", "ILCE": "SURMENE", "MAHALLE": "GULTEPE", "ADI": "KEFELİ CAMİİ", "TUR": "CAMI", "ENLEM": 40.8748, "BOYLAM": 40.0756, "RESİM": null }, "geometry": { "type": "Point", "coordinates": [ 40.0756, 40.8748 ] } },
{ "type": "Feature", "properties": { "IL": "TRABZON", "ILCE": "ORTAHISAR", "MAHALLE": "CUKURCAYIR", "ADI": "KAYMAKLI MANASTIRI", "TUR": "KILISE", "ENLEM": 40.9819, "BOYLAM": 39.7449, "RESİM": "C:\\Users\\hakan\\OneDrive - Glarner Brückenangebote GBA\\Desktop\\web_cbs_odev\\odev\\resimler\\kaymaklimanastiri.jpg" }, "geometry": { "type": "Point", "coordinates": [ 39.7449, 40.9819 ] } },
{ "type": "Feature", "properties": { "IL": "TRABZON", "ILCE": "AKCAABAT", "MAHALLE": "KAYALAR", "ADI": "KAYALAR MAHALLESİ CAMİİ", "TUR": "CAMI", "ENLEM": 41.0007, "BOYLAM": 39.5748, "RESİM": null }, "geometry": { "type": "Point", "coordinates": [ 39.5748, 41.0007 ] } },
{ "type": "Feature", "properties": { "IL": "TRABZON", "ILCE": "VAKFIKEBIR", "MAHALLE": "CAMLIK", "ADI": "KAYA KİLİSESİ", "TUR": "KILISE", "ENLEM": 41.0326, "BOYLAM": 39.2482, "RESİM": "C:\\Users\\hakan\\OneDrive - Glarner Brückenangebote GBA\\Desktop\\web_cbs_odev\\odev\\resimler\\kayakilisesi.jpg" }, "geometry": { "type": "Point", "coordinates": [ 39.2482, 41.0326 ] } },
{ "type": "Feature", "properties": { "IL": "TRABZON", "ILCE": "AKCAABAT", "MAHALLE": "KARAMAN", "ADI": "KARAMAN CAMİİ", "TUR": "CAMI", "ENLEM": 40.9659, "BOYLAM": 39.6023, "RESİM": null }, "geometry": { "type": "Point", "coordinates": [ 39.6023, 40.9659 ] } },
{ "type": "Feature", "properties": { "IL": "TRABZON", "ILCE": "SURMENE", "MAHALLE": "KARACAKAYA", "ADI": "KARACAKAYA MAHALLESİ CAMİİ", "TUR": "CAMI", "ENLEM": 40.8567, "BOYLAM": 40.0962, "RESİM": null }, "geometry": { "type": "Point", "coordinates": [ 40.0962, 40.8567 ] } },
{ "type": "Feature", "properties": { "IL": "TRABZON", "ILCE": "ORTAHISAR", "MAHALLE": "ORTAHISAR", "ADI": "KANUNİ EVİ", "TUR": "KONUT", "ENLEM": 41.0049, "BOYLAM": 39.719, "RESİM": null }, "geometry": { "type": "Point", "coordinates": [ 39.719, 41.0049 ] } },
{ "type": "Feature", "properties": { "IL": "TRABZON", "ILCE": "ORTAHISAR", "MAHALLE": "KALEDIBI", "ADI": "KALEDİBİ KİLİSESİ", "TUR": "KILISE", "ENLEM": 41.0079, "BOYLAM": 39.7149, "RESİM": "C:\\Users\\hakan\\OneDrive - Glarner Brückenangebote GBA\\Desktop\\web_cbs_odev\\odev\\resimler\\kaledibikilisesi.jpg" }, "geometry": { "type": "Point", "coordinates": [ 39.7149, 41.0079 ] } },
{ "type": "Feature", "properties": { "IL": "TRABZON", "ILCE": "ARAKLI", "MAHALLE": "KALECIK", "ADI": "KALECİK MAHALLESİ CAMİİ", "TUR": "CAMI", "ENLEM": 40.9577, "BOYLAM": 40.0311, "RESİM": null }, "geometry": { "type": "Point", "coordinates": [ 40.0311, 40.9577 ] } },
{ "type": "Feature", "properties": { "IL": "TRABZON", "ILCE": "KOPRUBASI", "MAHALLE": "YILMAZLAR", "ADI": "KAHVEDÜZÜ HANLARI", "TUR": "HAN", "ENLEM": 40.7778, "BOYLAM": 40.0936, "RESİM": "C:\\Users\\hakan\\OneDrive - Glarner Brückenangebote GBA\\Desktop\\web_cbs_odev\\odev\\resimler\\kahveduzu.jpg" }, "geometry": { "type": "Point", "coordinates": [ 40.0936, 40.7778 ] } },
{ "type": "Feature", "properties": { "IL": "TRABZON", "ILCE": "CAYKARA", "MAHALLE": "KABATAS", "ADI": "KABATAŞ MAHALLESİ CAMİİ", "TUR": "CAMI", "ENLEM": 40.7619, "BOYLAM": 40.2646, "RESİM": null }, "geometry": { "type": "Point", "coordinates": [ 40.2646, 40.7619 ] } },
{ "type": "Feature", "properties": { "IL": "TRABZON", "ILCE": "CAYKARA", "MAHALLE": "KABATAS", "ADI": "KABATAŞ AKPINAR CAMİİ", "TUR": "CAMI", "ENLEM": 40.7598, "BOYLAM": 40.2678, "RESİM": null }, "geometry": { "type": "Point", "coordinates": [ 40.2678, 40.7598 ] } },
{ "type": "Feature", "properties": { "IL": "TRABZON", "ILCE": "OF", "MAHALLE": "BOLUMLU", "ADI": "KABAN MESCİDİ", "TUR": "CAMI", "ENLEM": 40.8231, "BOYLAM": 40.2801, "RESİM": null }, "geometry": { "type": "Point", "coordinates": [ 40.2801, 40.8231 ] } },
{ "type": "Feature", "properties": { "IL": "TRABZON", "ILCE": "ORTAHISAR", "MAHALLE": "ISKENDERPASA", "ADI": "İSKENDERPAŞA CAMİİ", "TUR": "CAMI", "ENLEM": 41.0052, "BOYLAM": 39.7324, "RESİM": null }, "geometry": { "type": "Point", "coordinates": [ 39.7324, 41.0052 ] } },
{ "type": "Feature", "properties": { "IL": "TRABZON", "ILCE": "AKCAABAT", "MAHALLE": "ISIKLAR", "ADI": "IŞIKLAR MAHALLESİ ORTA CAMİİ", "TUR": "CAMI", "ENLEM": 40.8935, "BOYLAM": 39.4602, "RESİM": null }, "geometry": { "type": "Point", "coordinates": [ 39.4602, 40.8935 ] } },
{ "type": "Feature", "properties": { "IL": "TRABZON", "ILCE": "ORTAHISAR", "MAHALLE": "ORTAHISAR", "ADI": "İÇKALE CAMİİ", "TUR": "CAMI", "ENLEM": 41.0011, "BOYLAM": 39.7193, "RESİM": null }, "geometry": { "type": "Point", "coordinates": [ 39.7193, 41.0011 ] } },
{ "type": "Feature", "properties": { "IL": "TRABZON", "ILCE": "ORTAHISAR", "MAHALLE": "PAZARKAPI", "ADI": "HOCA HALİL CAMİİ", "TUR": "CAMI", "ENLEM": 41.008, "BOYLAM": 39.7177, "RESİM": null }, "geometry": { "type": "Point", "coordinates": [ 39.7177, 41.008 ] } },
{ "type": "Feature", "properties": { "IL": "TRABZON", "ILCE": "ORTAHISAR", "MAHALLE": "HIZIRBEY", "ADI": "HIZIRBEY CAMİİ", "TUR": "CAMI", "ENLEM": 41.0067, "BOYLAM": 39.7137, "RESİM": null }, "geometry": { "type": "Point", "coordinates": [ 39.7137, 41.0067 ] } },
{ "type": "Feature", "properties": { "IL": "TRABZON", "ILCE": "ORTAHISAR", "MAHALLE": "INONU", "ADI": "HATUNCUK HATUN CAMİİ", "TUR": "CAMI", "ENLEM": 41.0041, "BOYLAM": 39.7101, "RESİM": null }, "geometry": { "type": "Point", "coordinates": [ 39.7101, 41.0041 ] } },
{ "type": "Feature", "properties": { "IL": "TRABZON", "ILCE": "ORTAHISAR", "MAHALLE": "CARSI", "ADI": "HASANAĞA CAMİİ", "TUR": "CAMI", "ENLEM": 41.0078, "BOYLAM": 39.7219, "RESİM": null }, "geometry": { "type": "Point", "coordinates": [ 39.7219, 41.0078 ] } },
{ "type": "Feature", "properties": { "IL": "TRABZON", "ILCE": "ORTAHISAR", "MAHALLE": "GULBAHARHATUN", "ADI": "HAMZAPAŞA CAMİİ", "TUR": "CAMI", "ENLEM": 41.0043, "BOYLAM": 39.7128, "RESİM": null }, "geometry": { "type": "Point", "coordinates": [ 39.7128, 41.0043 ] } },
{ "type": "Feature", "properties": { "IL": "TRABZON", "ILCE": "ORTAHISAR", "MAHALLE": "CARSI", "ADI": "HACI SALİH CAMİİ", "TUR": "CAMI", "ENLEM": 41.0078, "BOYLAM": 39.7245, "RESİM": null }, "geometry": { "type": "Point", "coordinates": [ 39.7245, 41.0078 ] } },
{ "type": "Feature", "properties": { "IL": "TRABZON", "ILCE": "ORTAHISAR", "MAHALLE": "CUMHURIYET", "ADI": "HACI KASIM CAMİİ", "TUR": "CAMI", "ENLEM": 41.0038, "BOYLAM": 39.7243, "RESİM": null }, "geometry": { "type": "Point", "coordinates": [ 39.7243, 41.0038 ] } },
{ "type": "Feature", "properties": { "IL": "TRABZON", "ILCE": "ARAKLI", "MAHALLE": "MERKEZ", "ADI": "HACI HASAN CAMİİ", "TUR": "CAMI", "ENLEM": 40.9386, "BOYLAM": 40.0541, "RESİM": null }, "geometry": { "type": "Point", "coordinates": [ 40.0541, 40.9386 ] } },
{ "type": "Feature", "properties": { "IL": "TRABZON", "ILCE": "OF", "MAHALLE": "GURPINAR", "ADI": "HACI BAYRAM CAMİİ", "TUR": "CAMI", "ENLEM": 40.8313, "BOYLAM": 40.2947, "RESİM": null }, "geometry": { "type": "Point", "coordinates": [ 40.2947, 40.8313 ] } },
{ "type": "Feature", "properties": { "IL": "TRABZON", "ILCE": "DERNEKPAZARI", "MAHALLE": "GUNEY", "ADI": "GÜNEY MAHALLESİ CAMİİ", "TUR": "CAMI", "ENLEM": 40.7956, "BOYLAM": 40.2405, "RESİM": null }, "geometry": { "type": "Point", "coordinates": [ 40.2405, 40.7956 ] } },
{ "type": "Feature", "properties": { "IL": "TRABZON", "ILCE": "DERNEKPAZARI", "MAHALLE": "GUNEBAKAN", "ADI": "GÜNEBAKAN MAHALLESİ CAMİİ", "TUR": "CAMI", "ENLEM": 40.7835, "BOYLAM": 40.198, "RESİM": null }, "geometry": { "type": "Point", "coordinates": [ 40.198, 40.7835 ] } },
{ "type": "Feature", "properties": { "IL": "TRABZON", "ILCE": "SURMENE", "MAHALLE": "GULTEPE", "ADI": "GÜLTEPE MAHALLESİ CAMİİ", "TUR": "CAMI", "ENLEM": 40.8678, "BOYLAM": 40.0729, "RESİM": null }, "geometry": { "type": "Point", "coordinates": [ 40.0729, 40.8678 ] } },
{ "type": "Feature", "properties": { "IL": "TRABZON", "ILCE": "ORTAHISAR", "MAHALLE": "GULBAHARHATUN", "ADI": "GÜLBAHAR HATUN CAMİİ", "TUR": "CAMI", "ENLEM": 41.0034, "BOYLAM": 39.7161, "RESİM": null }, "geometry": { "type": "Point", "coordinates": [ 39.7161, 41.0034 ] } },
{ "type": "Feature", "properties": { "IL": "TRABZON", "ILCE": "ARSIN", "MAHALLE": "GOLGELIK", "ADI": "GÖLGELİK MAHALLESİ CAMİİ", "TUR": "CAMI", "ENLEM": 40.8387, "BOYLAM": 39.9508, "RESİM": null }, "geometry": { "type": "Point", "coordinates": [ 39.9508, 40.8387 ] } },
{ "type": "Feature", "properties": { "IL": "TRABZON", "ILCE": "DUZKOY", "MAHALLE": "GOKCELER", "ADI": "GÖKÇELER MAHALLESİ MERKEZ CAMİİ", "TUR": "CAMI", "ENLEM": 40.8972, "BOYLAM": 39.4369, "RESİM": null }, "geometry": { "type": "Point", "coordinates": [ 39.4369, 40.8972 ] } },
{ "type": "Feature", "properties": { "IL": "TRABZON", "ILCE": "ORTAHISAR", "MAHALLE": "BAHCECIK", "ADI": "FATİH KÜÇÜK CAMİİ", "TUR": "CAMI", "ENLEM": 40.9936, "BOYLAM": 39.7172, "RESİM": null }, "geometry": { "type": "Point", "coordinates": [ 39.7172, 40.9936 ] } },
{ "type": "Feature", "properties": { "IL": "TRABZON", "ILCE": "ORTAHISAR", "MAHALLE": "ORTAHISAR", "ADI": "FATİH BÜYÜK CAMİİ", "TUR": "CAMI", "ENLEM": 41.0047, "BOYLAM": 39.7196, "RESİM": null }, "geometry": { "type": "Point", "coordinates": [ 39.7196, 41.0047 ] } },
{ "type": "Feature", "properties": { "IL": "TRABZON", "ILCE": "BESIKDUZU", "MAHALLE": "CUMHURIYET", "ADI": "ESKİ CAMİİ", "TUR": "CAMI", "ENLEM": 41.0519, "BOYLAM": 39.2315, "RESİM": null }, "geometry": { "type": "Point", "coordinates": [ 39.2315, 41.0519 ] } },
{ "type": "Feature", "properties": { "IL": "TRABZON", "ILCE": "ORTAHISAR", "MAHALLE": "1 NOLU ERDOGDU", "ADI": "ERDOĞDU CAMİİ", "TUR": "CAMI", "ENLEM": 41.001, "BOYLAM": 39.7121, "RESİM": null }, "geometry": { "type": "Point", "coordinates": [ 39.7121, 41.001 ] } },
{ "type": "Feature", "properties": { "IL": "TRABZON", "ILCE": "BESIKDUZU", "MAHALLE": "DUYGULU", "ADI": "DUYGULU MAHALLESİ CAMİİ", "TUR": "CAMI", "ENLEM": 40.9668, "BOYLAM": 39.2415, "RESİM": null }, "geometry": { "type": "Point", "coordinates": [ 39.2415, 40.9668 ] } },
{ "type": "Feature", "properties": { "IL": "TRABZON", "ILCE": "AKCAABAT", "MAHALLE": "DURBINAR", "ADI": "DÜRBİNAR MAHALLESİ CAMİİ", "TUR": "CAMI", "ENLEM": 41.0187, "BOYLAM": 39.5701, "RESİM": null }, "geometry": { "type": "Point", "coordinates": [ 39.5701, 41.0187 ] } },
{ "type": "Feature", "properties": { "IL": "TRABZON", "ILCE": "SALPAZARI", "MAHALLE": "DOGANCI", "ADI": "DOĞANCI MAHALLESİ CAMİİ", "TUR": "CAMI", "ENLEM": 40.8953, "BOYLAM": 39.211, "RESİM": null }, "geometry": { "type": "Point", "coordinates": [ 39.211, 40.8953 ] } },
{ "type": "Feature", "properties": { "IL": "TRABZON", "ILCE": "ORTAHISAR", "MAHALLE": "CARSI", "ADI": "ÇARŞI CAMİİ", "TUR": "CAMI", "ENLEM": 41.0075, "BOYLAM": 39.7236, "RESİM": null }, "geometry": { "type": "Point", "coordinates": [ 39.7236, 41.0075 ] } },
{ "type": "Feature", "properties": { "IL": "TRABZON", "ILCE": "CAYKARA", "MAHALLE": "CAMLIBEL", "ADI": "ÇAMLIBEL MAHALLESİ CAMİİ", "TUR": "CAMI", "ENLEM": 40.6811, "BOYLAM": 40.2262, "RESİM": null }, "geometry": { "type": "Point", "coordinates": [ 40.2262, 40.6811 ] } },
{ "type": "Feature", "properties": { "IL": "TRABZON", "ILCE": "CAYKARA", "MAHALLE": "CAMBASI", "ADI": "ÇAMBAŞI MAHALLESİ ÖMERLİ CAMİİ", "TUR": "CAMI", "ENLEM": 40.6958, "BOYLAM": 40.2496, "RESİM": null }, "geometry": { "type": "Point", "coordinates": [ 40.2496, 40.6958 ] } },
{ "type": "Feature", "properties": { "IL": "TRABZON", "ILCE": "ARSIN", "MAHALLE": "GUNEYCE", "ADI": "BÜYÜK MAHALLE CAMİİ", "TUR": "CAMI", "ENLEM": 40.8581, "BOYLAM": 39.9385, "RESİM": null }, "geometry": { "type": "Point", "coordinates": [ 39.9385, 40.8581 ] } },
{ "type": "Feature", "properties": { "IL": "TRABZON", "ILCE": "ARSIN", "MAHALLE": "ATAYURT", "ADI": "BÜYÜK CAMİ (ATAYURT MAHALLESİ MERKEZ CAMİİ)", "TUR": "CAMI", "ENLEM": 40.8224, "BOYLAM": 39.9013, "RESİM": null }, "geometry": { "type": "Point", "coordinates": [ 39.9013, 40.8224 ] } },
{ "type": "Feature", "properties": { "IL": "TRABZON", "ILCE": "KOPRUBASI", "MAHALLE": "YILMAZLAR", "ADI": "BEŞKÖY MAHALLESİ YILMAZLAR CAMİİ", "TUR": "CAMI", "ENLEM": 40.7779, "BOYLAM": 40.1225, "RESİM": null }, "geometry": { "type": "Point", "coordinates": [ 40.1225, 40.7779 ] } },
{ "type": "Feature", "properties": { "IL": "TRABZON", "ILCE": "MACKA", "MAHALLE": "BAHCEKAYA", "ADI": "BAHCEKAYA MAHALLESİ CAMİİ", "TUR": "CAMI", "ENLEM": 40.8613, "BOYLAM": 39.7093, "RESİM": null }, "geometry": { "type": "Point", "coordinates": [ 39.7093, 40.8613 ] } },
{ "type": "Feature", "properties": { "IL": "TRABZON", "ILCE": "ORTAHISAR", "MAHALLE": "FATIH", "ADI": "AYASOFA KİLİSESİ / CAMİİ / MÜZESİ", "TUR": "KILISE/CAMI/MUZE", "ENLEM": 41.0031, "BOYLAM": 39.6961, "RESİM": null }, "geometry": { "type": "Point", "coordinates": [ 39.6961, 41.0031 ] } },
{ "type": "Feature", "properties": { "IL": "TRABZON", "ILCE": "ORTAHISAR", "MAHALLE": "ISKENDERPASA", "ADI": "ATATÜRK ANITI (MEYDAN PARK)", "TUR": "ANIT", "ENLEM": 41.0052, "BOYLAM": 39.7309, "RESİM": null }, "geometry": { "type": "Point", "coordinates": [ 39.7309, 41.0052 ] } },
{ "type": "Feature", "properties": { "IL": "TRABZON", "ILCE": "ORTAHISAR", "MAHALLE": "GULBAHARHATUN", "ADI": "ATATÜRK ANITI (ATAPARK)", "TUR": "ANIT", "ENLEM": 41.004, "BOYLAM": 39.7162, "RESİM": null }, "geometry": { "type": "Point", "coordinates": [ 39.7162, 41.004 ] } },
{ "type": "Feature", "properties": { "IL": "TRABZON", "ILCE": "AKCAABAT", "MAHALLE": "DURBINAR", "ADI": "AK CAMİ", "TUR": "CAMI", "ENLEM": 41.0217, "BOYLAM": 39.5716, "RESİM": null }, "geometry": { "type": "Point", "coordinates": [ 39.5716, 41.0217 ] } },
{ "type": "Feature", "properties": { "IL": "TRABZON", "ILCE": "ORTAHISAR", "MAHALLE": "BOZTEPE", "ADI": "AHİ EVREN CAMİİ", "TUR": "CAMI", "ENLEM": 40.9969, "BOYLAM": 39.7351, "RESİM": null }, "geometry": { "type": "Point", "coordinates": [ 39.7351, 40.9969 ] } },
{ "type": "Feature", "properties": { "IL": "TRABZON", "ILCE": "ORTAHISAR", "MAHALLE": "KEMERKAYA", "ADI": "İDARİ YAPI (ŞEHİR MÜZESİ)", "TUR": "CAMI", "ENLEM": 41.0059, "BOYLAM": 39.728, "RESİM": null }, "geometry": { "type": "Point", "coordinates": [ 39.728, 41.0059 ] } },
{ "type": "Feature", "properties": { "IL": "TRABZON", "ILCE": "ARAKLI", "MAHALLE": "AYTAS", "ADI": "Asma Şelalesi", "TUR": "SELALE", "ENLEM": 40.644, "BOYLAM": 39.926, "RESİM": "C:\\Users\\hakan\\OneDrive - Glarner Brückenangebote GBA\\Desktop\\web_cbs_odev\\odev\\resimler\\asmaselalesi.jpg" }, "geometry": { "type": "Point", "coordinates": [ 39.926, 40.644 ] } },
{ "type": "Feature", "properties": { "IL": "TRABZON", "ILCE": "SALPAZARI", "MAHALLE": "GUDUNALTI", "ADI": "Güdünaltı Şelalesi", "TUR": "SELALE", "ENLEM": 40.907, "BOYLAM": 39.193, "RESİM": "C:\\Users\\hakan\\OneDrive - Glarner Brückenangebote GBA\\Desktop\\web_cbs_odev\\odev\\resimler\\gudunaltiselalesi.jpg" }, "geometry": { "type": "Point", "coordinates": [ 39.193, 40.907 ] } },
{ "type": "Feature", "properties": { "IL": "TRABZON", "ILCE": "SURMENE", "MAHALLE": "ORTAKOY", "ADI": "Koyuncular Şelalesi", "TUR": "SELALE", "ENLEM": 40.847, "BOYLAM": 40.111, "RESİM": "C:\\Users\\hakan\\OneDrive - Glarner Brückenangebote GBA\\Desktop\\web_cbs_odev\\odev\\resimler\\koyuncularselalesi.jpg" }, "geometry": { "type": "Point", "coordinates": [ 40.111, 40.847 ] } },
{ "type": "Feature", "properties": { "IL": "TRABZON", "ILCE": "ARAKLI", "MAHALLE": "TURNALI", "ADI": "Os Şelalesi", "TUR": "SELALE", "ENLEM": 40.787, "BOYLAM": 39.982, "RESİM": "C:\\Users\\hakan\\OneDrive - Glarner Brückenangebote GBA\\Desktop\\web_cbs_odev\\odev\\resimler\\osselalesi.jpg" }, "geometry": { "type": "Point", "coordinates": [ 39.982, 40.787 ] } },
{ "type": "Feature", "properties": { "IL": "TRABZON", "ILCE": "TONYA", "MAHALLE": "SAGRI", "ADI": "Sağrı Şelalesi", "TUR": "SELALE", "ENLEM": 40.958, "BOYLAM": 39.3, "RESİM": "C:\\Users\\hakan\\OneDrive - Glarner Brückenangebote GBA\\Desktop\\web_cbs_odev\\odev\\resimler\\sagriselalesi.jpg" }, "geometry": { "type": "Point", "coordinates": [ 39.3, 40.958 ] } },
{ "type": "Feature", "properties": { "IL": "TRABZON", "ILCE": "SALPAZARI", "MAHALLE": "GOLLUALAN", "ADI": "Sandıkgölü Şelalesi", "TUR": "SELALE", "ENLEM": 40.856, "BOYLAM": 39.144, "RESİM": "C:\\Users\\hakan\\OneDrive - Glarner Brückenangebote GBA\\Desktop\\web_cbs_odev\\odev\\resimler\\calmagarasi.jpg" }, "geometry": { "type": "Point", "coordinates": [ 39.144, 40.856 ] } },
{ "type": "Feature", "properties": { "IL": "TRABZON", "ILCE": "AKCAABAT", "MAHALLE": "CEVIZLIK", "ADI": "Uçarsu Şelalesi", "TUR": "SELALE", "ENLEM": 40.898, "BOYLAM": 39.533, "RESİM": "C:\\Users\\hakan\\OneDrive - Glarner Brückenangebote GBA\\Desktop\\web_cbs_odev\\odev\\resimler\\ucarsuselalesi.jpg" }, "geometry": { "type": "Point", "coordinates": [ 39.533, 40.898 ] } },
{ "type": "Feature", "properties": { "IL": "TRABZON", "ILCE": "MACKA", "MAHALLE": "ALTINDERE VADISI", "ADI": "Altındere Vadisi Milli Parkı", "TUR": "MILLI PARK", "ENLEM": 40.692, "BOYLAM": 39.661, "RESİM": "C:\\Users\\hakan\\OneDrive - Glarner Brückenangebote GBA\\Desktop\\web_cbs_odev\\odev\\resimler\\altinderemilliparki.jpg" }, "geometry": { "type": "Point", "coordinates": [ 39.661, 40.692 ] } },
{ "type": "Feature", "properties": { "IL": "TRABZON", "ILCE": "DUZKOY", "MAHALLE": "CAL", "ADI": "Çal Mağarası", "TUR": "MAGARA", "ENLEM": 40.865, "BOYLAM": 39.379, "RESİM": null }, "geometry": { "type": "Point", "coordinates": [ 39.379, 40.865 ] } },
{ "type": "Feature", "properties": { "IL": "TRABZON", "ILCE": "CAYKARA", "MAHALLE": "UZUNGOL", "ADI": "Uzungöl", "TUR": "GOL", "ENLEM": 40.619, "BOYLAM": 40.298, "RESİM": "C:\\Users\\hakan\\OneDrive - Glarner Brückenangebote GBA\\Desktop\\web_cbs_odev\\odev\\resimler\\uzungol.jpg" }, "geometry": { "type": "Point", "coordinates": [ 40.298, 40.619 ] } },
{ "type": "Feature", "properties": { "IL": "TRABZON", "ILCE": "AKCAABAT", "MAHALLE": "YILDIZLI", "ADI": "Sera Gölü", "TUR": "GOL", "ENLEM": 40.982, "BOYLAM": 39.61, "RESİM": "C:\\Users\\hakan\\OneDrive - Glarner Brückenangebote GBA\\Desktop\\web_cbs_odev\\odev\\resimler\\seragolu.jpg" }, "geometry": { "type": "Point", "coordinates": [ 39.61, 40.982 ] } },
{ "type": "Feature", "properties": { "IL": "TRABZON", "ILCE": "SALPAZARI", "MAHALLE": "SISDAGI", "ADI": "Sandık Gölü", "TUR": "GOL", "ENLEM": 40.856, "BOYLAM": 39.144, "RESİM": "C:\\Users\\hakan\\OneDrive - Glarner Brückenangebote GBA\\Desktop\\web_cbs_odev\\odev\\resimler\\sandikgolu.jpg" }, "geometry": { "type": "Point", "coordinates": [ 39.144, 40.856 ] } },
{ "type": "Feature", "properties": { "IL": null, "ILCE": null, "MAHALLE": null, "ADI": null, "TUR": null, "ENLEM": null, "BOYLAM": null, "RESİM": null }, "geometry": { "type": "Point", "coordinates": [ 39.7181, 41.0044 ] } }
]
}
